STARLINK-5700           
1 55607U 23020AQ  26067.86788129  .00043841  00000+0  32081-2 0  9995
2 55607  43.0074 356.3050 0001170 316.9525  43.1226 15.02911944168947
SEDNA-1                 
1 60580U 24149DS  26068.76583836  .00008721  00000+0  60834-3 0  9998
2 60580  97.6673 149.7617 0008344 330.8481  29.2278 15.05597965 85421
